COSMOS 2433 (720)       
1 32275U 07052A   23198.22954505 -.00000083  00000+0  00000+0 0  9998
2 32275  66.0351 351.5650 0002022 192.9486 167.0432  2.13104252122381
COSMOS 2432 (719)       
1 32276U 07052B   23199.69502625 -.00000078  00000+0  00000+0 0  9997
2 32276  66.0490 351.6243 0007982 335.0801  16.3946  2.13103445122408
COSMOS 2434 (721)       
1 32393U 07065A   23199.31347069  .00000066  00000+0  00000+0 0  9995
2 32393  64.3383 227.9392 0000394 172.5269 190.0212  2.13103208121112
COSMOS 2436 (723)       
1 32395U 07065C   23199.15962764  .00000067  00000+0  00000+0 0  9995
2 32395  64.3469 228.0055 0015310 351.6500  28.4400  2.13103006121040
COSMOS 2456 (730)       
1 36111U 09070A   23199.98162525 -.00000011  00000+0  00000+0 0  9991
2 36111  64.4729 107.4335 0003970 318.3493 356.6589  2.13099358105782
COSMOS 2457 (733)       
1 36112U 09070B   23200.10547722 -.00000010  00000+0  00000+0 0  9994
2 36112  64.4567 107.2956 0004066 160.9610  19.4772  2.13101505105796
COSMOS 2460 (732)       
1 36402U 10007C   23198.47630216 -.00000083  00000+0  00000+0 0  9995
2 36402  65.8985 350.2806 0002142 105.7681 252.6640  2.13106448104109
COSMOS 2476 (744)       
1 37867U 11064A   23198.99493740 -.00000021  00000+0  00000+0 0  9993
2 37867  64.7536 108.9761 0022020 237.3967 309.5754  2.13101851 91116
COSMOS 2477 (745)       
1 37868U 11064B   23198.93767618 -.00000021  00000+0  00000+0 0  9996
2 37868  64.7610 109.0471 0019269 238.4632  82.4814  2.13101768 91067
COSMOS 2475 (743)       
1 37869U 11064C   23199.26800354 -.00000018  00000+0  00000+0 0  9995
2 37869  64.7683 109.0476 0023881 254.8777 277.8943  2.13102167 91089
COSMOS 2485 (747)       
1 39155U 13019A   23199.16240774 -.00000019  00000+0  00000+0 0  9991
2 39155  64.9144 109.4838 0022395 233.2689 126.5538  2.13102054 79587
COSMOS 2492 (754)       
1 39620U 14012A   23197.71011468 -.00000086  00000+0  00000+0 0  9991
2 39620  65.7828 349.9316 0010907 327.7149  32.2142  2.13103274 72515
COSMOS 2500 (755)       
1 40001U 14032A   23198.83257459 -.00000083  00000+0  00000+0 0  9991
2 40001  65.7208 349.7254 0006721 184.9841 175.0053  2.13106122 70758
COSMOS 2501 (702K)      
1 40315U 14075A   23199.08207326  .00000066  00000+0  00000+0 0  9992
2 40315  63.6422 227.3434 0020210 211.4099 148.5409  2.13101510 67158
COSMOS 2514 (751)       
1 41330U 16008A   23199.06307762 -.00000082  00000+0  00000+0 0  9990
2 41330  65.5183 349.3110 0010112 199.9362 160.0204  2.13102760 57924
COSMOS 2516 (753)       
1 41554U 16032A   23199.17921764  .00000066  00000+0  00000+0 0  9992
2 41554  63.8683 227.7273 0015511 214.7238 145.2470  2.13106569 55539
COSMOS 2522 (752)       
1 42939U 17055A   23199.37449105  .00000065  00000+0  00000+0 0  9991
2 42939  64.1025 228.2319 0010134 242.1291 117.8406  2.13102034 45286
COSMOS 2527 (756)       
1 43508U 18053A   23198.86369088 -.00000022  00000+0  00000+0 0  9991
2 43508  65.0758 109.5764 0007944 233.5872 126.3661  2.13102525 39579
COSMOS 2529 (757)       
1 43687U 18086A   23199.90172276  .00000062  00000+0  00000+0 0  9995
2 43687  64.3177 228.6365 0011709 260.8871  99.0514  2.13102208 36602
COSMOS 2534 (758)       
1 44299U 19030A   23199.33773959  .00000065  00000+0  00000+0 0  9990
2 44299  64.3904 228.5777 0013748 279.7301 141.8460  2.13102241 32247
COSMOS 2544 (759)       
1 44850U 19088A   23199.74589716 -.00000012  00000+0  00000+0 0  9990
2 44850  65.0620 109.3906 0012766 259.0846 100.8041  2.13102290 28011
COSMOS 2545 (760)       
1 45358U 20018A   23198.53490998 -.00000085  00000+0  00000+0 0  9998
2 45358  64.8585 349.6138 0007792 235.4384 124.4843  2.13102735 25952
COSMOS 2547 (705K)      
1 46805U 20075A   23199.19359402  .00000067  00000+0  00000+0 0  9995
2 46805  64.6174 228.1242 0008771 243.2742 116.7092  2.13103152 21211
COSMOS 2557 (706K)      
1 52984U 22075A   23199.82490553 -.00000080  00000+0  00000+0 0  9991
2 52984  64.7730 351.7334 0010599 280.0477  79.8307  2.13102342  8016
COSMOS 2559 (707K)      
1 54031U 22130A   23199.70626627 -.00000081  00000+0  00000+0 0  9999
2 54031  64.7422 351.8682 0005535 210.3967 103.1960  2.13101395  5997
COSMOS 2564 (761)       
1 54377U 22161A   23199.96030736  .00000062  00000+0  00000+0 0  9992
2 54377  64.7579 228.1430 0011253 226.0612 133.9161  2.13102260  4956
